EWS-G2 (GOES 15)        
1 36411U 10008A   25111.96163027  .00000040  00000+0  00000+0 0  9990
2 36411   0.1820  86.1260 0001783 191.4034 340.3434  1.00274603 55411
GOES 16                 
1 41866U 16071A   25111.87311532 -.00000206  00000+0  00000+0 0  9997
2 41866   0.0544 280.4546 0000941 180.9207 342.1732  1.00130896 30878
GOES 17                 
1 43226U 18022A   25111.86842378 -.00000090  00000+0  00000+0 0  9994
2 43226   0.0175 321.5983 0002516 127.3935 329.4513  1.00272012 26197
GOES 18                 
1 51850U 22021A   25112.22105663  .00000099  00000+0  00000+0 0  9998
2 51850   0.0128 101.3784 0000258 353.1502  58.5928  1.00270324 11581
GOES 19                 
1 60133U 24119A   25112.20461485 -.00000245  00000+0  00000+0 0  9991
2 60133   0.0183 102.6976 0000485 299.5299 166.7718  1.00268062  3082
